[{"OBJECT_NAME":"HJ-2B","OBJECT_ID":"2020-067B","EPOCH":"2026-03-09T22:09:41.128416","MEAN_MOTION":14.76549657,"ECCENTRICITY":0.00019178,"INCLINATION":97.8932,"RA_OF_ASC_NODE":150.5691,"ARG_OF_PERICENTER":89.2777,"MEAN_ANOMALY":270.8653,"EPHEMERIS_TYPE":0,"CLASSIFICATION_TYPE":"U","NORAD_CAT_ID":46479,"ELEMENT_SET_NO":999,"REV_AT_EPOCH":29361,"BSTAR":0.00020264745,"MEAN_MOTION_DOT":1.363e-5,"MEAN_MOTION_DDOT":0},{"OBJECT_NAME":"COSMOS 1275 DEB","OBJECT_ID":"1981-053BQ","EPOCH":"2026-03-09T15:40:24.357216","MEAN_MOTION":14.77002931,"ECCENTRICITY":0.0001198,"INCLINATION":82.9323,"RA_OF_ASC_NODE":284.0642,"ARG_OF_PERICENTER":58.3597,"MEAN_ANOMALY":301.7733,"EPHEMERIS_TYPE":0,"CLASSIFICATION_TYPE":"U","NORAD_CAT_ID":12723,"ELEMENT_SET_NO":999,"REV_AT_EPOCH":29706,"BSTAR":0.0025696,"MEAN_MOTION_DOT":0.0001816,"MEAN_MOTION_DDOT":0}]
